[{"OBJECT_NAME":"OBJECT C","OBJECT_ID":"2023-104C","EPOCH":"2026-03-09T22:39:44.230752","MEAN_MOTION":15.26846312,"ECCENTRICITY":0.00113074,"INCLINATION":97.273,"RA_OF_ASC_NODE":135.3333,"ARG_OF_PERICENTER":3.876,"MEAN_ANOMALY":356.2565,"EPHEMERIS_TYPE":0,"CLASSIFICATION_TYPE":"U","NORAD_CAT_ID":57426,"ELEMENT_SET_NO":999,"REV_AT_EPOCH":14663,"BSTAR":0.00062618506,"MEAN_MOTION_DOT":0.00016495,"MEAN_MOTION_DDOT":0},{"OBJECT_NAME":"STARLINK-31171","OBJECT_ID":"2024-017J","EPOCH":"2026-03-09T13:39:53.655264","MEAN_MOTION":15.30187631,"ECCENTRICITY":0.0001297,"INCLINATION":53.1616,"RA_OF_ASC_NODE":181.3233,"ARG_OF_PERICENTER":95.9703,"MEAN_ANOMALY":264.1445,"EPHEMERIS_TYPE":0,"CLASSIFICATION_TYPE":"U","NORAD_CAT_ID":58834,"ELEMENT_SET_NO":999,"REV_AT_EPOCH":12036,"BSTAR":-1.087e-5,"MEAN_MOTION_DOT":-6.81e-6,"MEAN_MOTION_DDOT":0}]
